[{"OBJECT_NAME":"STARLINK-3976","OBJECT_ID":"2022-053T","EPOCH":"2026-03-09T12:05:07.021536","MEAN_MOTION":15.0883706,"ECCENTRICITY":0.00013397,"INCLINATION":53.2174,"RA_OF_ASC_NODE":154.9554,"ARG_OF_PERICENTER":82.5118,"MEAN_ANOMALY":277.6027,"EPHEMERIS_TYPE":0,"CLASSIFICATION_TYPE":"U","NORAD_CAT_ID":52673,"ELEMENT_SET_NO":999,"REV_AT_EPOCH":21101,"BSTAR":-8.253538e-6,"MEAN_MOTION_DOT":-4.19e-6,"MEAN_MOTION_DDOT":0},{"OBJECT_NAME":"PSLV DEB","OBJECT_ID":"2001-049CY","EPOCH":"2026-03-09T18:20:37.296384","MEAN_MOTION":15.08389698,"ECCENTRICITY":0.00190632,"INCLINATION":97.9861,"RA_OF_ASC_NODE":156.2845,"ARG_OF_PERICENTER":340.3269,"MEAN_ANOMALY":19.722,"EPHEMERIS_TYPE":0,"CLASSIFICATION_TYPE":"U","NORAD_CAT_ID":27152,"ELEMENT_SET_NO":999,"REV_AT_EPOCH":30598,"BSTAR":0.00053695108,"MEAN_MOTION_DOT":8.318e-5,"MEAN_MOTION_DDOT":0}]
